NORAD_CAT_ID,OBJECT_NAME,OBJECT_TYPE,EPOCH,MEAN_MOTION,ECCENTRICITY,INCLINATION,RA_OF_ASC_NODE,ARG_OF_PERICENTER,MEAN_ANOMALY,BSTAR,MEAN_MOTION_DOT,MEAN_MOTION_DDOT,TLE_LINE0,TLE_LINE1,TLE_LINE2,SEMIMAJOR_AXIS,PERIOD,APOGEE,PERIGEE,DECAYED
54792.0,STARLINK-5431,PAYLOAD,2023-05-11 22:30:12,15.08804101,0.0001183,53.2172,359.9643,100.4109,259.7017,0.00066768,0.00010344,0.0,0 STARLINK-5431,1 54792U 22175AL  23131.93764553  .00010344  00000-0  66768-3 0  9994,2 54792  53.2172 359.9643 0001183 100.4109 259.7017 15.08804101 21851,6917.99,95.44,540.674,539.037,0.0
54792.0,STARLINK-5431,PAYLOAD,2023-05-12 22:20:57,15.08850043,9.74e-05,53.2187,355.5028,92.87,267.2403,0.00010442,1.375e-05,0.0,0 STARLINK-5431,1 54792U 22175AL  23132.93122420  .00001375  00000-0  10442-3 0  9998,2 54792  53.2187 355.5028 0000974  92.8700 267.2403 15.08850043 22001,6917.85,95.437,540.388,539.041,0.0
54792.0,STARLINK-5431,PAYLOAD,2023-05-13 20:36:22,15.08834652,9.91e-05,53.2186,351.3396,77.2148,282.8955,3.8078e-05,3.18e-06,0.0,0 STARLINK-5431,1 54792U 22175AL  23133.85859545  .00000318  00000-0  38078-4 0  9997,2 54792  53.2186 351.3396 0000991  77.2148 282.8955 15.08834652 22142,6917.897,95.438,540.447,539.076,0.0
54792.0,STARLINK-5431,PAYLOAD,2023-05-13 22:11:45,15.08835936,0.0001011,53.2193,351.0424,78.864,281.2465,8.1691e-05,1.012e-05,0.0,0 STARLINK-5431,1 54792U 22175AL  23133.92483698  .00001012  00000-0  81691-4 0  9998,2 54792  53.2193 351.0424 0001011  78.8640 281.2465 15.08835936 24313,6917.893,95.438,540.457,539.058,0.0
54792.0,STARLINK-5431,PAYLOAD,2023-05-14 20:27:08,15.08856938,9.74e-05,53.2196,346.8775,92.2923,267.818,1.7845e-05,-4e-08,0.0,0 STARLINK-5431,1 54792U 22175AL  23134.85218463 -.00000004  00000-0  17845-4 0  9998,2 54792  53.2196 346.8775 0000974  92.2923 267.8180 15.08856938 22292,6917.829,95.436,540.367,539.02,0.0
54792.0,STARLINK-5431,PAYLOAD,2023-05-14 23:37:55,15.08853365,9.82e-05,53.2182,346.2821,95.3519,264.7585,0.00017246,2.459e-05,0.0,0 STARLINK-5431,1 54792U 22175AL  23134.98466567  .00002459  00000-0  17246-3 0  9991,2 54792  53.2182 346.2821 0000982  95.3519 264.7585 15.08853365 24475,6917.84,95.437,540.384,539.025,0.0
54792.0,STARLINK-5431,PAYLOAD,2023-05-15 20:17:57,15.08832999,0.0001125,53.2189,342.4153,101.2749,258.837,2.5693e-05,1.21e-06,0.0,0 STARLINK-5431,1 54792U 22175AL  23135.84580151  .00000121  00000-0  25693-4 0  9993,2 54792  53.2189 342.4153 0001125 101.2749 258.8370 15.08832999 22441,6917.902,95.438,540.545,538.989,0.0
54792.0,STARLINK-5431,PAYLOAD,2023-05-15 23:28:43,15.08835156,0.0001322,53.2185,341.8198,101.9887,258.1254,6.6359e-05,7.68e-06,0.0,0 STARLINK-5431,1 54792U 22175AL  23135.97828137  .00000768  00000-0  66359-4 0  9997,2 54792  53.2185 341.8198 0001322 101.9887 258.1254 15.08835156 24622,6917.895,95.438,540.675,538.846,0.0
54792.0,STARLINK-5431,PAYLOAD,2023-05-16 16:57:57,15.08853698,0.000119,53.2184,338.5493,101.9574,258.1552,0.00018463,2.653e-05,0.0,0 STARLINK-5431,1 54792U 22175AL  23136.70691086  .00002653  00000-0  18463-3 0  9997,2 54792  53.2184 338.5493 0001190 101.9574 258.1552 15.08853698 22572,6917.839,95.437,540.527,538.88,0.0
54792.0,STARLINK-5431,PAYLOAD,2023-05-16 20:08:43,15.08854189,8.71e-05,53.218,337.9576,80.3837,279.7254,0.00018238,2.617e-05,0.0,0 STARLINK-5431,1 54792U 22175AL  23136.83939058  .00002617  00000-0  18238-3 0  9995,2 54792  53.2180 337.9576 0000871  80.3837 279.7254 15.08854189 24756,6917.837,95.437,540.305,539.099,0.0
54792.0,STARLINK-5431,PAYLOAD,2023-05-17 02:30:16,15.08832934,0.0001167,53.2171,336.7688,85.0503,275.0623,-3.9412e-05,-9.15e-06,0.0,0 STARLINK-5431,1 54792U 22175AL  23137.10435705 -.00000915  00000-0 -39412-4 0  9995,2 54792  53.2171 336.7688 0001167  85.0503 275.0623 15.08832934 22636,6917.902,95.438,540.574,538.96,0.0
54792.0,STARLINK-5431,PAYLOAD,2023-05-17 18:24:07,15.08846655,9.5e-05,53.2176,333.795,93.7426,266.3674,0.00014667,2.048e-05,0.0,0 STARLINK-5431,1 54792U 22175AL  23137.76675177  .00002048  00000-0  14667-3 0  9997,2 54792  53.2176 333.7950 0000950  93.7426 266.3674 15.08846655 22734,6917.86,95.437,540.382,539.068,0.0
54792.0,STARLINK-5431,PAYLOAD,2023-05-17 19:59:30,15.08848205,9.26e-05,53.2177,333.4978,90.2651,269.8447,0.00027767,4.135e-05,0.0,0 STARLINK-5431,1 54792U 22175AL  23137.83299164  .00004135  00000-0  27767-3 0  9997,2 54792  53.2177 333.4978 0000926  90.2651 269.8447 15.08848205 24907,6917.855,95.437,540.361,539.08,0.0
54792.0,STARLINK-5431,PAYLOAD,2023-05-18 11:53:22,15.08840348,9.08e-05,53.2175,330.5241,93.2886,266.821,8.9215e-05,1.132e-05,0.0,0 STARLINK-5431,1 54792U 22175AL  23138.49539359  .00001132  00000-0  89215-4 0  9994,2 54792  53.2175 330.5241 0000908  93.2886 266.8210 15.08840348 22845,6917.879,95.438,540.372,539.116,0.0
54792.0,STARLINK-5431,PAYLOAD,2023-05-18 19:50:17,15.08842679,9.05e-05,53.2174,329.0374,91.9034,268.2062,0.00010928,1.452e-05,0.0,0 STARLINK-5431,1 54792U 22175AL  23138.82659336  .00001452  00000-0  10928-3 0  9998,2 54792  53.2174 329.0374 0000905  91.9034 268.2062 15.08842679 25057,6917.872,95.437,540.363,539.111,0.0
54792.0,STARLINK-5431,PAYLOAD,2023-05-19 14:54:55,15.08839505,8.94e-05,53.2173,325.4691,92.9944,267.1151,0.00013499,1.861e-05,0.0,0 STARLINK-5431,1 54792U 22175AL  23139.62147624  .00001861  00000-0  13499-3 0  9999,2 54792  53.2173 325.4691 0000894  92.9944 267.1151 15.08839505 23011,6917.882,95.438,540.365,539.128,0.0
54792.0,STARLINK-5431,PAYLOAD,2023-05-19 19:41:04,15.08843626,8.67e-05,53.2173,324.577,92.3837,267.7254,0.00018582,2.671e-05,0.0,0 STARLINK-5431,1 54792U 22175AL  23139.82019489  .00002671  00000-0  18582-3 0  9996,2 54792  53.2173 324.5770 0000867  92.3837 267.7254 15.08843626 25206,6917.869,95.437,540.334,539.135,0.0
54792.0,STARLINK-5431,PAYLOAD,2023-05-20 17:56:28,15.08852435,7.12e-05,53.2174,320.4122,90.5163,269.5911,0.00031478,4.727e-05,0.0,0 STARLINK-5431,1 54792U 22175AL  23140.74755105  .00004727  00000-0  31478-3 0  9994,2 54792  53.2174 320.4122 0000712  90.5163 269.5911 15.08852435 23187,6917.842,95.437,540.2,539.215,0.0
54792.0,STARLINK-5431,PAYLOAD,2023-05-20 19:31:51,15.08857246,7.6e-05,53.2174,320.1148,86.8722,273.2357,0.00039901,6.071e-05,0.0,0 STARLINK-5431,1 54792U 22175AL  23140.81378917  .00006071  00000-0  39901-3 0  9997,2 54792  53.2174 320.1148 0000760  86.8722 273.2357 15.08857246 25356,6917.828,95.436,540.218,539.167,0.0
54792.0,STARLINK-5431,PAYLOAD,2023-05-21 05:04:10,15.08841505,0.0001189,53.2169,318.3308,74.4186,285.6937,9.9049e-05,1.289e-05,0.0,0 STARLINK-5431,1 54792U 22175AL  23141.21123550  .00001289  00000-0  99049-4 0  9999,2 54792  53.2169 318.3308 0001189  74.4186 285.6937 15.08841505 23259,6917.876,95.437,540.563,538.918,0.0
54792.0,STARLINK-5431,PAYLOAD,2023-05-21 11:25:43,15.08836281,0.0001227,53.2164,317.1452,70.7924,289.3201,1.9756e-05,2.7e-07,0.0,0 STARLINK-5431,1 54792U 22175AL  23141.47619806  .00000027  00000-0  19756-4 0  9997,2 54792  53.2164 317.1452 0001227  70.7924 289.3201 15.08836281 25457,6917.892,95.438,540.606,538.908,0.0
54792.0,STARLINK-5431,PAYLOAD,2023-05-21 17:47:16,15.08827905,7.27e-05,53.2176,315.954,70.6412,289.4658,-0.000101,-1.894e-05,0.0,0 STARLINK-5431,1 54792U 22175AL  23141.74116485 -.00001894  00000-0 -10100-3 0  9990,2 54792  53.2176 315.9540 0000727  70.6412 289.4658 15.08827905 23334,6917.917,95.438,540.285,539.279,0.0
54792.0,STARLINK-5431,PAYLOAD,2023-05-22 11:16:30,15.08846257,8.89e-05,53.2173,312.682,69.4945,290.6142,0.00036053,5.456e-05,0.0,0 STARLINK-5431,1 54792U 22175AL  23142.46980116  .00005456  00000-0  36053-3 0  9991,2 54792  53.2173 312.6820 0000889  69.4945 290.6142 15.08846257 23447,6917.861,95.437,540.341,539.111,0.0
54792.0,STARLINK-5431,PAYLOAD,2023-05-22 17:38:03,15.08851754,9.7e-05,53.2168,311.493,61.9706,298.1384,0.00086603,0.00013526,0.0,0 STARLINK-5431,1 54792U 22175AL  23142.73476216  .00013526  00000-0  86603-3 0  9995,2 54792  53.2168 311.4930 0000970  61.9706 298.1384 15.08851754 25646,6917.844,95.437,540.38,539.038,0.0
54792.0,STARLINK-5431,PAYLOAD,2023-05-23 11:07:17,15.08844812,0.0001171,53.217,308.223,77.7425,282.3698,0.00025428,3.762e-05,0.0,0 STARLINK-5431,1 54792U 22175AL  23143.46340155  .00003762  00000-0  25428-3 0  9997,2 54792  53.2170 308.2230 0001171  77.7425 282.3698 15.08844812 23595,6917.866,95.437,540.541,538.921,0.0
54792.0,STARLINK-5431,PAYLOAD,2023-05-23 17:28:50,15.08845256,0.0001137,53.2172,307.0326,77.3749,282.7371,0.00030174,4.518e-05,0.0,0 STARLINK-5431,1 54792U 22175AL  23143.72836250  .00004518  00000-0  30174-3 0  9996,2 54792  53.2172 307.0326 0001137  77.3749 282.7371 15.08845256 25796,6917.864,95.437,540.516,538.943,0.0
54792.0,STARLINK-5431,PAYLOAD,2023-05-24 10:58:05,15.08842666,9.73e-05,53.2172,303.7624,71.2805,288.8293,8.0663e-05,9.96e-06,0.0,0 STARLINK-5431,1 54792U 22175AL  23144.45700256  .00000996  00000-0  80663-4 0  9998,2 54792  53.2172 303.7624 0000973  71.2805 288.8293 15.08842666 23748,6917.872,95.437,540.41,539.064,0.0
54792.0,STARLINK-5431,PAYLOAD,2023-05-24 15:44:14,15.08845056,0.0001219,53.2187,302.87,77.3644,282.7484,-0.00011095,-2.053e-05,0.0,0 STARLINK-5431,1 54792U 22175AL  23144.65572097 -.00002053  00000-0 -11095-3 0  9990,2 54792  53.2187 302.8700 0001219  77.3644 282.7484 15.08845056 25935,6917.865,95.437,540.573,538.887,0.0
54792.0,STARLINK-5431,PAYLOAD,2023-05-25 13:59:38,15.08840715,9.25e-05,53.2177,298.7078,74.0518,286.0576,0.00012117,1.641e-05,0.0,0 STARLINK-5431,1 54792U 22175AL  23145.58308360  .00001641  00000-0  12117-3 0  9999,2 54792  53.2177 298.7078 0000925  74.0518 286.0576 15.08840715 26074,6917.878,95.438,540.383,539.103,0.0
54792.0,STARLINK-5431,PAYLOAD,2023-05-25 17:10:24,15.08843526,9.44e-05,53.2177,298.1131,74.2086,285.9011,0.00014217,1.976e-05,0.0,0 STARLINK-5431,1 54792U 22175AL  23145.71556204  .00001976  00000-0  14217-3 0  9990,2 54792  53.2177 298.1131 0000944  74.2086 285.9011 15.08843526 23938,6917.87,95.437,540.388,539.082,0.0
